[{"OBJECT_NAME":"OBJECT C","OBJECT_ID":"2024-174C","EPOCH":"2026-03-07T05:41:36.519936","MEAN_MOTION":15.21181447,"ECCENTRICITY":0.0009601,"INCLINATION":97.4469,"RA_OF_ASC_NODE":75.6508,"ARG_OF_PERICENTER":198.0637,"MEAN_ANOMALY":162.0259,"EPHEMERIS_TYPE":0,"CLASSIFICATION_TYPE":"U","NORAD_CAT_ID":61240,"ELEMENT_SET_NO":999,"REV_AT_EPOCH":8020,"BSTAR":0.00020676,"MEAN_MOTION_DOT":4.544e-5,"MEAN_MOTION_DDOT":0},{"OBJECT_NAME":"SHIYAN-31","OBJECT_ID":"2025-227A","EPOCH":"2026-03-09T23:00:16.199712","MEAN_MOTION":15.23071011,"ECCENTRICITY":0.00102897,"INCLINATION":80.0014,"RA_OF_ASC_NODE":266.3496,"ARG_OF_PERICENTER":145.5638,"MEAN_ANOMALY":214.6259,"EPHEMERIS_TYPE":0,"CLASSIFICATION_TYPE":"U","NORAD_CAT_ID":65945,"ELEMENT_SET_NO":999,"REV_AT_EPOCH":2244,"BSTAR":0.00029737952,"MEAN_MOTION_DOT":7.034e-5,"MEAN_MOTION_DDOT":0}]
